{"type": "FeatureCollection", "features": [ {"type": "Feature", "properties": {"norad_id": 38722, "name": "FENGYUN 1C DEB", "group": "fengyun-1c-debris", "lat": -46.8446393417587, "lon": -89.24181360744295, "alt_km": 806.8781696292754, "timestamp": "2025-12-26T19:22:39.196959+00:00", "meta": {"OBJECT_NAME": "FENGYUN 1C DEB", "OBJECT_ID": "1999-025ETP", "EPOCH": "2025-12-23T03:05:34.681632", "MEAN_MOTION": 14.58641148, "ECCENTRICITY": 0.0145982, "INCLINATION": 99.353, "RA_OF_ASC_NODE": 96.7446, "ARG_OF_PERICENTER": 63.5175, "MEAN_ANOMALY": 298.091, "EPHEMERIS_TYPE": 0, "CLASSIFICATION_TYPE": "U", "NORAD_CAT_ID": 38722, "ELEMENT_SET_NO": 999, "REV_AT_EPOCH": 70615, "BSTAR": 0.0021733607, "MEAN_MOTION_DOT": 0.00011693, "MEAN_MOTION_DDOT": 0}, "tle": {"line1": "1 38722U 99025ETP 25357.12887363  .00011693  00000+0  21734-2 0  9995", "line2": "2 38722  99.3530  96.7446 0145982  63.5175 298.0910 14.58641148706155"}}, "geometry": {"type": "Point", "coordinates": [-89.24181360744295, -46.8446393417587]}}, {"type": "Feature", "properties": {"norad_id": 38725, "name": "FENGYUN 1C DEB", "group": "fengyun-1c-debris", "lat": 23.258240411629583, "lon": 122.75660490892658, "alt_km": 772.5835631137033, "timestamp": "2025-12-26T19:22:39.196971+00:00", "meta": {"OBJECT_NAME": "FENGYUN 1C DEB", "OBJECT_ID": "1999-025ETS", "EPOCH": "2025-12-24T14:01:00.000192", "MEAN_MOTION": 14.43026373, "ECCENTRICITY": 0.00354571, "INCLINATION": 98.871, "RA_OF_ASC_NODE": 124.2922, "ARG_OF_PERICENTER": 222.3443, "MEAN_ANOMALY": 137.5008, "EPHEMERIS_TYPE": 0, "CLASSIFICATION_TYPE": "U", "NORAD_CAT_ID": 38725, "ELEMENT_SET_NO": 999, "REV_AT_EPOCH": 73523, "BSTAR": 0.0028859508, "MEAN_MOTION_DOT": 9.707e-05, "MEAN_MOTION_DDOT": 0}, "tle": {"line1": "1 38725U 99025ETS 25358.58402778  .00009707  00000+0  28860-2 0  9992", "line2": "2 38725  98.8710 124.2922 0035457 222.3443 137.5008 14.43026373735233"}}, "geometry": {"type": "Point", "coordinates": [122.75660490892658, 23.258240411629583]}}, {"type": "Feature", "properties": {"norad_id": 38726, "name": "FENGYUN 1C DEB", "group": "fengyun-1c-debris", "lat": -33.18837724484848, "lon": -158.63447437879634, "alt_km": 567.5820056129096, "timestamp": "2025-12-26T19:22:39.196981+00:00", "meta": {"OBJECT_NAME": "FENGYUN 1C DEB", "OBJECT_ID": "1999-025ETT", "EPOCH": "2025-12-18T07:44:42.644256", "MEAN_MOTION": 15.04018095, "ECCENTRICITY": 0.00236822, "INCLINATION": 99.1359, "RA_OF_ASC_NODE": 17.3874, "ARG_OF_PERICENTER": 108.0917, "MEAN_ANOMALY": 252.2886, "EPHEMERIS_TYPE": 0, "CLASSIFICATION_TYPE": "U", "NORAD_CAT_ID": 38726, "ELEMENT_SET_NO": 999, "REV_AT_EPOCH": 69939, "BSTAR": 0.0056393313, "MEAN_MOTION_DOT": 0.00079186, "MEAN_MOTION_DDOT": 0}, "tle": {"line1": "1 38726U 99025ETT 25352.32271579  .00079186  00000+0  56393-2 0  9992", "line2": "2 38726  99.1359  17.3874 0023682 108.0917 252.2886 15.04018095699393"}}, "geometry": {"type": "Point", "coordinates": [-158.63447437879634, -33.18837724484848]}}, {"type": "Feature", "properties": {"norad_id": 38728, "name": "FENGYUN 1C DEB", "group": "fengyun-1c-debris", "lat": -51.270193015917265, "lon": 158.30955336902682, "alt_km": 705.2996176604101, "timestamp": "2025-12-26T19:22:39.196991+00:00", "meta": {"OBJECT_NAME": "FENGYUN 1C DEB", "OBJECT_ID": "1999-025ETV", "EPOCH": "2025-12-26T03:55:53.081184", "MEAN_MOTION": 14.70806488, "ECCENTRICITY": 0.00746168, "INCLINATION": 99.2616, "RA_OF_ASC_NODE": 349.3183, "ARG_OF_PERICENTER": 13.9217, "MEAN_ANOMALY": 52.9999, "EPHEMERIS_TYPE": 0, "CLASSIFICATION_TYPE": "U", "NORAD_CAT_ID": 38728, "ELEMENT_SET_NO": 999, "REV_AT_EPOCH": 65808, "BSTAR": 0.0014609826, "MEAN_MOTION_DOT": 9.262e-05, "MEAN_MOTION_DDOT": 0}, "tle": {"line1": "1 38728U 99025ETV 25360.16380881  .00009262  00000+0  14610-2 0  9996", "line2": "2 38728  99.2616 349.3183 0074616  13.9217  52.9999 14.70806488658087"}}, "geometry": {"type": "Point", "coordinates": [158.30955336902682, -51.270193015917265]}}, {"type": "Feature", "properties": {"norad_id": 38789, "name": "FENGYUN 1C DEB", "group": "fengyun-1c-debris", "lat": -0.5490653569563347, "lon": -112.4048006886532, "alt_km": 600.2107001405575, "timestamp": "2025-12-26T19:22:39.197001+00:00", "meta": {"OBJECT_NAME": "FENGYUN 1C DEB", "OBJECT_ID": "1999-025EUD", "EPOCH": "2025-12-16T11:04:27.892416", "MEAN_MOTION": 14.45831603, "ECCENTRICITY": 0.02075268, "INCLINATION": 98.8566, "RA_OF_ASC_NODE": 236.7044, "ARG_OF_PERICENTER": 14.1855, "MEAN_ANOMALY": 164.1034, "EPHEMERIS_TYPE": 0, "CLASSIFICATION_TYPE": "U", "NORAD_CAT_ID": 38789, "ELEMENT_SET_NO": 999, "REV_AT_EPOCH": 61899, "BSTAR": 0.00050950207, "MEAN_MOTION_DOT": 2.303e-05, "MEAN_MOTION_DDOT": 0}, "tle": {"line1": "1 38789U 99025EUD 25350.46143394  .00002303  00000+0  50950-3 0  9998", "line2": "2 38789  98.8566 236.7044 0207526  14.1855 164.1034 14.45831603618998"}}, "geometry": {"type": "Point", "coordinates": [-112.4048006886532, -0.5490653569563347]}}, {"type": "Feature", "properties": {"norad_id": 38795, "name": "FENGYUN 1C DEB", "group": "fengyun-1c-debris", "lat": 25.569841270035457, "lon": 17.422237564026133, "alt_km": 1510.7303176155528, "timestamp": "2025-12-26T19:22:39.197012+00:00", "meta": {"OBJECT_NAME": "FENGYUN 1C DEB", "OBJECT_ID": "1999-025EUK", "EPOCH": "2025-12-26T08:24:09.300096", "MEAN_MOTION": 13.29955469, "ECCENTRICITY": 0.05032924, "INCLINATION": 98.7034, "RA_OF_ASC_NODE": 21.2372, "ARG_OF_PERICENTER": 221.9888, "MEAN_ANOMALY": 134.1615, "EPHEMERIS_TYPE": 0, "CLASSIFICATION_TYPE": "U", "NORAD_CAT_ID": 38795, "ELEMENT_SET_NO": 999, "REV_AT_EPOCH": 78693, "BSTAR": 0.0021147486, "MEAN_MOTION_DOT": 1.954e-05, "MEAN_MOTION_DDOT": 0}, "tle": {"line1": "1 38795U 99025EUK 25360.35010764  .00001954  00000+0  21147-2 0  9994", "line2": "2 38795  98.7034  21.2372 0503292 221.9888 134.1615 13.29955469786938"}}, "geometry": {"type": "Point", "coordinates": [17.422237564026133, 25.569841270035457]}}, {"type": "Feature", "properties": {"norad_id": 38797, "name": "FENGYUN 1C DEB", "group": "fengyun-1c-debris", "lat": 2.8526459441571155, "lon": -107.20478203765181, "alt_km": 1213.632494362697, "timestamp": "2025-12-26T19:22:39.197021+00:00", "meta": {"OBJECT_NAME": "FENGYUN 1C DEB", "OBJECT_ID": "1999-025EUM", "EPOCH": "2025-12-26T10:32:41.326944", "MEAN_MOTION": 13.61616863, "ECCENTRICITY": 0.02450026, "INCLINATION": 99.4843, "RA_OF_ASC_NODE": 252.9147, "ARG_OF_PERICENTER": 186.2121, "MEAN_ANOMALY": 173.5966, "EPHEMERIS_TYPE": 0, "CLASSIFICATION_TYPE": "U", "NORAD_CAT_ID": 38797, "ELEMENT_SET_NO": 999, "REV_AT_EPOCH": 59469, "BSTAR": 0.00027425481, "MEAN_MOTION_DOT": 2.14e-06, "MEAN_MOTION_DDOT": 0}, "tle": {"line1": "1 38797U 99025EUM 25360.43936721  .00000214  00000+0  27425-3 0  9999", "line2": "2 38797  99.4843 252.9147 0245002 186.2121 173.5966 13.61616863594698"}}, "geometry": {"type": "Point", "coordinates": [-107.20478203765181, 2.8526459441571155]}}, {"type": "Feature", "properties": {"norad_id": 38799, "name": "FENGYUN 1C DEB", "group": "fengyun-1c-debris", "lat": 75.99488701947347, "lon": -67.44060481516478, "alt_km": 826.0100218744074, "timestamp": "2025-12-26T19:22:39.197031+00:00", "meta": {"OBJECT_NAME": "FENGYUN 1C DEB", "OBJECT_ID": "1999-025EUP", "EPOCH": "2025-12-23T11:21:05.361408", "MEAN_MOTION": 14.48820928, "ECCENTRICITY": 0.01632234, "INCLINATION": 98.4043, "RA_OF_ASC_NODE": 72.8877, "ARG_OF_PERICENTER": 317.4693, "MEAN_ANOMALY": 41.395, "EPHEMERIS_TYPE": 0, "CLASSIFICATION_TYPE": "U", "NORAD_CAT_ID": 38799, "ELEMENT_SET_NO": 999, "REV_AT_EPOCH": 64194, "BSTAR": 0.00093364434, "MEAN_MOTION_DOT": 4.126e-05, "MEAN_MOTION_DDOT": 0}, "tle": {"line1": "1 38799U 99025EUP 25357.47297872  .00004126  00000+0  93364-3 0  9999", "line2": "2 38799  98.4043  72.8877 0163223 317.4693  41.3950 14.48820928641947"}}, "geometry": {"type": "Point", "coordinates": [-67.44060481516478, 75.99488701947347]}}, {"type": "Feature", "properties": {"norad_id": 38801, "name": "FENGYUN 1C DEB", "group": "fengyun-1c-debris", "lat": -60.03548326062897, "lon": -143.98461533969854, "alt_km": 721.3226651764562, "timestamp": "2025-12-26T19:22:39.197043+00:00", "meta": {"OBJECT_NAME": "FENGYUN 1C DEB", "OBJECT_ID": "1999-025EUR", "EPOCH": "2025-12-26T09:52:03.216576", "MEAN_MOTION": 14.24870894, "ECCENTRICITY": 0.03462686, "INCLINATION": 98.3719, "RA_OF_ASC_NODE": 50.4355, "ARG_OF_PERICENTER": 311.7065, "MEAN_ANOMALY": 61.6244, "EPHEMERIS_TYPE": 0, "CLASSIFICATION_TYPE": "U", "NORAD_CAT_ID": 38801, "ELEMENT_SET_NO": 999, "REV_AT_EPOCH": 64555, "BSTAR": 0.00052893461, "MEAN_MOTION_DOT": 2.26e-05, "MEAN_MOTION_DDOT": 0}, "tle": {"line1": "1 38801U 99025EUR 25360.41114834  .00002260  00000+0  52893-3 0  9996", "line2": "2 38801  98.3719  50.4355 0346268 311.7065  61.6244 14.24870894645558"}}, "geometry": {"type": "Point", "coordinates": [-143.98461533969854, -60.03548326062897]}}, {"type": "Feature", "properties": {"norad_id": 38803, "name": "FENGYUN 1C DEB", "group": "fengyun-1c-debris", "lat": 58.25268205582618, "lon": -9.891761811421757, "alt_km": 786.1164650209712, "timestamp": "2025-12-26T19:22:39.197055+00:00", "meta": {"OBJECT_NAME": "FENGYUN 1C DEB", "OBJECT_ID": "1999-025EUT", "EPOCH": "2025-12-25T22:51:47.888640", "MEAN_MOTION": 14.23791722, "ECCENTRICITY": 0.0063593, "INCLINATION": 99.1379, "RA_OF_ASC_NODE": 4.2982, "ARG_OF_PERICENTER": 358.616, "MEAN_ANOMALY": 1.4832, "EPHEMERIS_TYPE": 0, "CLASSIFICATION_TYPE": "U", "NORAD_CAT_ID": 38803, "ELEMENT_SET_NO": 999, "REV_AT_EPOCH": 60400, "BSTAR": 0.0021621, "MEAN_MOTION_DOT": 5.004e-05, "MEAN_MOTION_DDOT": 0}, "tle": {"line1": "1 38803U 99025EUT 25359.95263760  .00005004  00000+0  21621-2 0  9991", "line2": "2 38803  99.1379   4.2982 0063593 358.6160   1.4832 14.23791722604008"}}, "geometry": {"type": "Point", "coordinates": [-9.891761811421757, 58.25268205582618]}}]}